start=new Date('2021-12-05T00:00:00.000Z').valueOf();
sats=[{"FILE":"3232651","MEAN_MOTION":"15.06401229","SEMIMAJOR_AXIS":"6925.345","LAUNCH_DATE":"2020-11-25","GP_ID":"191103764","SITE":"AFETR","MEAN_MOTION_DOT":"-0.00004322","ELEMENT_SET_NO":"999","COUNTRY_CODE":"US","RA_OF_ASC_NODE":"86.8545","APOAPSIS":"547.962","ARG_OF_PERICENTER":"81.0344","MEAN_MOTION_DDOT":"0.0000000000000","TLE_LINE1":"1 47162U 20088AS  21338.66955043 -.00004322  00000-0 -27140-3 0  9993","ECCENTRICITY":"0.00010860","REV_AT_EPOCH":"5731","TLE_LINE2":"2 47162  53.0552  86.8545 0001086  81.0344 279.0767 15.06401229 57317","CLASSIFICATION_TYPE":"U","REF_FRAME":"TEME","CENTER_NAME":"EARTH","INCLINATION":"53.0552","BSTAR":"-0.00027140000000","PERIAPSIS":"546.458","EPOCH":"2021-12-04T16:04:09.157152","DECAY_DATE":null,"EPHEMERIS_TYPE":"0","RCS_SIZE":"LARGE","TIME_SYSTEM":"UTC","MEAN_ELEMENT_THEORY":"SGP4","OBJECT_ID":"2020-088AS","PERIOD":"95.592","OBJECT_TYPE":"PAYLOAD","OBJECT_NAME":"STARLINK-1877","NORAD_CAT_ID":"47162","MEAN_ANOMALY":"279.0767"},{"EPHEMERIS_TYPE":"0","DECAY_DATE":null,"EPOCH":"2021-12-04T16:50:35.826720","MEAN_ELEMENT_THEORY":"SGP4","RCS_SIZE":"LARGE","TIME_SYSTEM":"UTC","BSTAR":"-0.00000102330000","PERIAPSIS":"546.391","NORAD_CAT_ID":"47163","OBJECT_NAME":"STARLINK-1878","MEAN_ANOMALY":"281.2873","OBJECT_TYPE":"PAYLOAD","PERIOD":"95.593","OBJECT_ID":"2020-088AT","APOAPSIS":"548.125","RA_OF_ASC_NODE":"96.7872","COUNTRY_CODE":"US","SITE":"AFETR","GP_ID":"191102512","LAUNCH_DATE":"2020-11-25","SEMIMAJOR_AXIS":"6925.393","FILE":"3232651","MEAN_MOTION":"15.06385619","ELEMENT_SET_NO":"999","MEAN_MOTION_DOT":"-0.00000297","CLASSIFICATION_TYPE":"U","REV_AT_EPOCH":"5717","TLE_LINE2":"2 47163  53.0401  96.7872 0001252  78.8257 281.2873 15.06385619 57177","INCLINATION":"53.0401","CENTER_NAME":"EARTH","REF_FRAME":"TEME","TLE_LINE1":"1 47163U 20088AT  21338.70180355 -.00000297  00000-0 -10233-5 0  9999","MEAN_MOTION_DDOT":"0.0000000000000","ARG_OF_PERICENTER":"78.8257","ECCENTRICITY":"0.00012520"},{"FILE":"3232651","MEAN_MOTION":"15.06392786","SEMIMAJOR_AXIS":"6925.371","LAUNCH_DATE":"2020-11-25","GP_ID":"191103262","SITE":"AFETR","MEAN_MOTION_DOT":"0.00000534","ELEMENT_SET_NO":"999","COUNTRY_CODE":"US","RA_OF_ASC_NODE":"67.3610","APOAPSIS":"548.157","ARG_OF_PERICENTER":"85.1211","TLE_LINE1":"1 47164U 20088AU  21338.55712617  .00000534  00000-0  54772-4 0  9992","MEAN_MOTION_DDOT":"0.0000000000000","ECCENTRICITY":"0.00013310","REV_AT_EPOCH":"5757","TLE_LINE2":"2 47164  53.0557  67.3610 0001331  85.1211 274.9930 15.06392786 57573","CLASSIFICATION_TYPE":"U","CENTER_NAME":"EARTH","REF_FRAME":"TEME","INCLINATION":"53.0557","BSTAR":"0.00005477200000","PERIAPSIS":"546.314","EPOCH":"2021-12-04T13:22:15.701088","EPHEMERIS_TYPE":"0","DECAY_DATE":null,"RCS_SIZE":"LARGE","TIME_SYSTEM":"UTC","MEAN_ELEMENT_THEORY":"SGP4","OBJECT_TYPE":"PAYLOAD","OBJECT_ID":"2020-088AU","PERIOD":"95.593","OBJECT_NAME":"STARLINK-1879","NORAD_CAT_ID":"47164","MEAN_ANOMALY":"274.9930"},{"FILE":"3232651","MEAN_MOTION":"15.06411175","SEMIMAJOR_AXIS":"6925.314","LAUNCH_DATE":"2020-11-25","GP_ID":"191104013","SITE":"AFETR","MEAN_MOTION_DOT":"-0.00003387","ELEMENT_SET_NO":"999","RA_OF_ASC_NODE":"86.1498","COUNTRY_CODE":"US","APOAPSIS":"548.593","ARG_OF_PERICENTER":"91.2917","MEAN_MOTION_DDOT":"0.0000000000000","TLE_LINE1":"1 47165U 20088AV  21338.82804259 -.00003387  00000-0 -20847-3 0  9993","ECCENTRICITY":"0.00020410","REV_AT_EPOCH":"5733","TLE_LINE2":"2 47165  53.0543  86.1498 0002041  91.2917 268.8306 15.06411175 57339","CLASSIFICATION_TYPE":"U","REF_FRAME":"TEME","CENTER_NAME":"EARTH","INCLINATION":"53.0543","BSTAR":"-0.00020847000000","PERIAPSIS":"545.766","EPOCH":"2021-12-04T19:52:22.879776","DECAY_DATE":null,"EPHEMERIS_TYPE":"0","TIME_SYSTEM":"UTC","RCS_SIZE":"LARGE","MEAN_ELEMENT_THEORY":"SGP4","PERIOD":"95.591","OBJECT_ID":"2020-088AV","OBJECT_TYPE":"PAYLOAD","OBJECT_NAME":"STARLINK-1880","NORAD_CAT_ID":"47165","MEAN_ANOMALY":"268.8306"},{"ARG_OF_PERICENTER":"66.7759","TLE_LINE1":"1 47166U 20088AW  21338.47267655  .00025903  00000-0  84476-3 0  9992","MEAN_MOTION_DDOT":"0.0000000000000","ECCENTRICITY":"0.00017560","REV_AT_EPOCH":"5789","TLE_LINE2":"2 47166  53.0498  44.5480 0001756  66.7759 293.3426 15.31653021 57894","CLASSIFICATION_TYPE":"U","CENTER_NAME":"EARTH","REF_FRAME":"TEME","INCLINATION":"53.0498","SEMIMAJOR_AXIS":"6849.017","FILE":"3232651","MEAN_MOTION":"15.31653021","GP_ID":"191104264","SITE":"AFETR","LAUNCH_DATE":"2020-11-25","MEAN_MOTION_DOT":"0.00025903","ELEMENT_SET_NO":"999","COUNTRY_CODE":"US","RA_OF_ASC_NODE":"44.5480","APOAPSIS":"472.085","OBJECT_TYPE":"PAYLOAD","PERIOD":"94.016","OBJECT_ID":"2020-088AW","OBJECT_NAME":"STARLINK-1881","NORAD_CAT_ID":"47166","MEAN_ANOMALY":"293.3426","BSTAR":"0.00084476000000","PERIAPSIS":"469.679","EPOCH":"2021-12-04T11:20:39.253920","EPHEMERIS_TYPE":"0","DECAY_DATE":null,"RCS_SIZE":"LARGE","TIME_SYSTEM":"UTC","MEAN_ELEMENT_THEORY":"SGP4"},{"ELEMENT_SET_NO":"999","MEAN_MOTION_DOT":"-0.00000964","SITE":"AFETR","GP_ID":"191103012","LAUNCH_DATE":"2020-11-25","MEAN_MOTION":"15.06390922","FILE":"3232651","SEMIMAJOR_AXIS":"6925.376","APOAPSIS":"552.063","COUNTRY_CODE":"US","RA_OF_ASC_NODE":"85.9269","ECCENTRICITY":"0.00069620","MEAN_MOTION_DDOT":"0.0000000000000","TLE_LINE1":"1 47167U 20088AX  21338.87966115 -.00000964  00000-0 -45639-4 0  9995","ARG_OF_PERICENTER":"78.3466","INCLINATION":"53.0540","REF_FRAME":"TEME","CENTER_NAME":"EARTH","CLASSIFICATION_TYPE":"U","REV_AT_EPOCH":"5734","TLE_LINE2":"2 47167  53.0540  85.9269 0006962  78.3466 281.8304 15.06390922 57342","PERIAPSIS":"542.420","BSTAR":"-0.00004563900000","MEAN_ELEMENT_THEORY":"SGP4","RCS_SIZE":"LARGE","TIME_SYSTEM":"UTC","DECAY_DATE":null,"EPHEMERIS_TYPE":"0","EPOCH":"2021-12-04T21:06:42.723360","OBJECT_ID":"2020-088AX","PERIOD":"95.593","OBJECT_TYPE":"PAYLOAD","MEAN_ANOMALY":"281.8304","NORAD_CAT_ID":"47167","OBJECT_NAME":"STARLINK-1884"},{"PERIAPSIS":"485.954","BSTAR":"0.00176630000000","MEAN_ELEMENT_THEORY":"SGP4","TIME_SYSTEM":"UTC","RCS_SIZE":"LARGE","EPHEMERIS_TYPE":"0","DECAY_DATE":null,"EPOCH":"2021-12-04T18:44:50.260128","OBJECT_TYPE":"PAYLOAD","OBJECT_ID":"2020-088AY","PERIOD":"94.348","MEAN_ANOMALY":"294.8868","NORAD_CAT_ID":"47168","OBJECT_NAME":"STARLINK-1885","ELEMENT_SET_NO":"999","MEAN_MOTION_DOT":"0.00046343","GP_ID":"191102763","SITE":"AFETR","LAUNCH_DATE":"2020-11-25","FILE":"3232651","SEMIMAJOR_AXIS":"6865.108","MEAN_MOTION":"15.26271163","APOAPSIS":"487.992","COUNTRY_CODE":"US","RA_OF_ASC_NODE":"84.6689","ECCENTRICITY":"0.00014850","TLE_LINE1":"1 47168U 20088AY  21338.78113727  .00046343  00000-0  17663-2 0  9992","MEAN_MOTION_DDOT":"0.0000000000000","ARG_OF_PERICENTER":"65.2284","INCLINATION":"53.0564","CENTER_NAME":"EARTH","REF_FRAME":"TEME","CLASSIFICATION_TYPE":"U","TLE_LINE2":"2 47168  53.0564  84.6689 0001485  65.2284 294.8868 15.26271163 57356","REV_AT_EPOCH":"5735"},{"PERIOD":"95.593","OBJECT_ID":"2020-088BA","OBJECT_TYPE":"PAYLOAD","MEAN_ANOMALY":"285.3854","NORAD_CAT_ID":"47170","OBJECT_NAME":"STARLINK-1887","PERIAPSIS":"546.321","BSTAR":"0.00001603100000","MEAN_ELEMENT_THEORY":"SGP4","RCS_SIZE":"LARGE","TIME_SYSTEM":"UTC","DECAY_DATE":null,"EPHEMERIS_TYPE":"0","EPOCH":"2021-12-04T15:58:50.765376","ECCENTRICITY":"0.00013310","MEAN_MOTION_DDOT":"0.0000000000000","TLE_LINE1":"1 47170U 20088BA  21338.66586534 -.00000043  00000-0  16031-4 0  9990","ARG_OF_PERICENTER":"74.7282","INCLINATION":"53.0548","REF_FRAME":"TEME","CENTER_NAME":"EARTH","CLASSIFICATION_TYPE":"U","REV_AT_EPOCH":"5731","TLE_LINE2":"2 47170  53.0548  86.8847 0001331  74.7282 285.3854 15.06390625 57313","ELEMENT_SET_NO":"999","MEAN_MOTION_DOT":"-0.00000043","GP_ID":"191103514","SITE":"AFETR","LAUNCH_DATE":"2020-11-25","SEMIMAJOR_AXIS":"6925.377","FILE":"3232651","MEAN_MOTION":"15.06390625","APOAPSIS":"548.164","RA_OF_ASC_NODE":"86.8847","COUNTRY_CODE":"US"},{"INCLINATION":"53.0565","CENTER_NAME":"EARTH","REF_FRAME":"TEME","CLASSIFICATION_TYPE":"U","TLE_LINE2":"2 47171  53.0565  77.3960 0001381  83.1279 276.9868 15.06390322 57437","REV_AT_EPOCH":"5743","ECCENTRICITY":"0.00013810","TLE_LINE1":"1 47171U 20088BB  21338.55252347  .00000204  00000-0  32565-4 0  9999","MEAN_MOTION_DDOT":"0.0000000000000","ARG_OF_PERICENTER":"83.1279","APOAPSIS":"548.200","COUNTRY_CODE":"US","RA_OF_ASC_NODE":"77.3960","ELEMENT_SET_NO":"999","MEAN_MOTION_DOT":"0.00000204","GP_ID":"191103765","LAUNCH_DATE":"2020-11-25","SITE":"AFETR","SEMIMAJOR_AXIS":"6925.378","FILE":"3232651","MEAN_MOTION":"15.06390322","MEAN_ANOMALY":"276.9868","NORAD_CAT_ID":"47171","OBJECT_NAME":"STARLINK-1888","OBJECT_TYPE":"PAYLOAD","OBJECT_ID":"2020-088BB","PERIOD":"95.593","MEAN_ELEMENT_THEORY":"SGP4","TIME_SYSTEM":"UTC","RCS_SIZE":"LARGE","EPHEMERIS_TYPE":"0","DECAY_DATE":null,"EPOCH":"2021-12-04T13:15:38.027808","PERIAPSIS":"546.287","BSTAR":"0.00003256500000"},{"OBJECT_NAME":"STARLINK-1889","NORAD_CAT_ID":"47172","MEAN_ANOMALY":"338.0067","OBJECT_TYPE":"PAYLOAD","OBJECT_ID":"2020-088BC","PERIOD":"91.698","EPOCH":"2021-12-04T11:41:39.372000","EPHEMERIS_TYPE":"0","DECAY_DATE":null,"TIME_SYSTEM":"UTC","RCS_SIZE":"LARGE","MEAN_ELEMENT_THEORY":"SGP4","BSTAR":"0.00019600000000","PERIAPSIS":"356.420","REV_AT_EPOCH":"5764","TLE_LINE2":"2 47172  53.0560  62.1245 0002129  22.1041 338.0067 15.70365409 57645","CLASSIFICATION_TYPE":"U","CENTER_NAME":"EARTH","REF_FRAME":"TEME","INCLINATION":"53.0560","ARG_OF_PERICENTER":"22.1041","TLE_LINE1":"1 47172U 20088BC  21338.48726125  .00023880  00000-0  19600-3 0  9991","MEAN_MOTION_DDOT":"0.0000000000000","ECCENTRICITY":"0.00021290","COUNTRY_CODE":"US","RA_OF_ASC_NODE":"62.1245","APOAPSIS":"359.288","SEMIMAJOR_AXIS":"6735.989","FILE":"3232651","MEAN_MOTION":"15.70365409","LAUNCH_DATE":"2020-11-25","GP_ID":"191102513","SITE":"AFETR","MEAN_MOTION_DOT":"0.00023880","ELEMENT_SET_NO":"999"}];
